STARLINK-36912          
1 67961U 26038A   26085.91668981  .00086543  00000+0  26562-2 0  9995
2 67961  97.2852  96.7222 0000986  93.3838 329.9413 15.33399623  5975
STARLINK-36881          
1 67962U 26038B   26085.91668981  .00095880  00000+0  29412-2 0  9997
2 67962  97.2851  96.7295 0001218 136.0712 302.2836 15.33375314  5974
STARLINK-36357          
1 67963U 26038C   26085.91668981 -.02192378  00000+0 -66736-1 0  9991
2 67963  97.2859  96.7460 0001517  71.9663  30.7415 15.37374157  5975
STARLINK-36349          
1 67964U 26038D   26085.91668981 -.02421698  00000+0 -76093-1 0  9999
2 67964  97.2854  96.7351 0002068  88.7238   0.4447 15.36756225  5974
STARLINK-36806          
1 67965U 26038E   26085.91668981  .00088596  00000+0  27184-2 0  9990
2 67965  97.2854  96.7478 0001715  85.1854  38.1325 15.33400557  5972
STARLINK-36820          
1 67966U 26038F   26085.91668981  .00085423  00000+0  26227-2 0  9994
2 67966  97.2855  96.7542 0001735 110.5831  27.6421 15.33393758  5970
STARLINK-36819          
1 67967U 26038G   26085.93302435  .00090283  00000+0  16385-2 0  9990
2 67967  97.2818  96.6686 0002146  76.8250 283.3240 15.49261421  5871
STARLINK-36812          
1 67968U 26038H   26085.91668981  .00085079  00000+0  26119-2 0  9993
2 67968  97.2851  96.7667 0001492  83.7780  84.5397 15.33398315  5978
STARLINK-36709          
1 67969U 26038J   26085.91668981  .00103333  00000+0  31672-2 0  9998
2 67969  97.2858  96.7776 0001914  60.5739 137.6608 15.33367594  5973
STARLINK-36319          
1 67970U 26038K   26085.91668981  .00084197  00000+0  25181-2 0  9994
2 67970  97.2853  96.7395 0001437  87.7277  17.6956 15.34233699  5944
STARLINK-36710          
1 67971U 26038L   26085.91668981  .00087116  00000+0  26738-2 0  9998
2 67971  97.2851  96.7865 0001421  49.3323 163.9881 15.33397729  5973
STARLINK-36894          
1 67972U 26038M   26085.91668981  .00087685  00000+0  26912-2 0  9994
2 67972  97.2850  96.7924 0001268  91.2132 137.1083 15.33395029  5970
STARLINK-36900          
1 67973U 26038N   26085.97285888  .00109181  00000+0  19777-2 0  9999
2 67973  97.2837  96.7703 0001604 109.4616 250.6809 15.49243459  5887
STARLINK-36901          
1 67974U 26038P   26085.91668981  .00097634  00000+0  29946-2 0  9991
2 67974  97.2851  96.7996 0001944 108.2901 134.9440 15.33371212  5976
STARLINK-36883          
1 67975U 26038Q   26085.91668981 -.02136505  00000+0 -60078-1 0  9997
2 67975  97.2855  96.8276 0001873  89.1518 212.2749 15.40288686  5977
STARLINK-36880          
1 67976U 26038R   26085.98367478  .00066927  00000+0  12193-2 0  9994
2 67976  97.2826  96.7539 0000963  53.5953 306.5387 15.49247663  5888
STARLINK-36904          
1 67977U 26038S   26085.91668981 -.02183751  00000+0 -61149-1 0  9994
2 67977  97.2849  96.8216 0001874  87.2688 200.6107 15.39904170  5974
STARLINK-36364          
1 67978U 26038T   26085.91668981  .00085434  00000+0  26236-2 0  9999
2 67978  97.2851  96.8422 0001247  88.5765 259.7602 15.33388029  5979
STARLINK-36359          
1 67979U 26038U   26085.91668981  .00094697  00000+0  28289-2 0  9991
2 67979  97.2847  96.8021 0001252  92.7585 159.1867 15.34223118  5977
STARLINK-36882          
1 67980U 26038V   26085.91668981 -.02174331  00000+0 -62552-1 0  9991
2 67980  97.2847  96.8205 0001917  86.1647 198.7108 15.39070516  5971
STARLINK-36874          
1 67981U 26038W   26085.91668981  .00087383  00000+0  26826-2 0  9993
2 67981  97.2850  96.8483 0001347  87.2766 276.0548 15.33388198  5975
STARLINK-36879          
1 67982U 26038X   26085.96772506  .00082008  00000+0  14910-2 0  9998
2 67982  97.2849  96.7771 0002009 118.4071 241.7383 15.49243839  5880
STARLINK-36867          
1 67983U 26038Y   26085.95444971  .00075271  00000+0  13708-2 0  9998
2 67983  97.2852  96.7952 0001032  67.5511 292.5849 15.49223825  5888
STARLINK-36266          
1 67984U 26038Z   26085.91668981  .00093239  00000+0  28619-2 0  9995
2 67984  97.2851  96.8634 0001178  71.2981 322.0183 15.33367318  5946
STARLINK-36802          
1 67985U 26038AA  26085.98383308  .00277231  00000+0  17887-2 0  9991
2 67985  97.2872  97.2043 0001122 102.2257 257.9134 15.75334172  5916
STARLINK-36535          
1 67986U 26039A   26085.91668981 -.02232658  00000+0 -81413-1 0  9992
2 67986  42.9984 312.2086 0001675 276.0005  10.7253 15.31110719  5647
STARLINK-36744          
1 67987U 26039B   26085.91668981 -.01797385  00000+0 -61087-1 0  9990
2 67987  42.9992 312.0134 0001335 250.3391 116.4461 15.33141282  5641
STARLINK-36734          
1 67988U 26039C   26085.91321673  .00078273  00000+0  13251-2 0  9991
2 67988  43.0019 312.8902 0002583 266.2695  93.7870 15.50611904  4321
STARLINK-36957          
1 67989U 26039D   26085.91668981 -.01870897  00000+0 -58642-1 0  9995
2 67989  42.9994 311.9787 0001607 256.2935 124.5890 15.35797960  5646
STARLINK-36951          
1 67990U 26039E   26084.04675806  .00061583  00000+0  10465-2 0  9997
2 67990  43.0018 322.9387 0002967 275.8567  84.1955 15.50598247  4043
STARLINK-36941          
1 67991U 26039F   26085.65494681  .00059523  00000+0  10123-2 0  9998
2 67991  42.9969 314.3916 0001611 281.3002  78.7677 15.50589314  4282
STARLINK-36950          
1 67992U 26039G   26085.69202725  .00062458  00000+0  10604-2 0  9994
2 67992  42.9988 313.7955 0002066 268.6414  91.4210 15.50620010  4295
STARLINK-36975          
1 67993U 26039H   26085.68500578  .00060885  00000+0  10343-2 0  9993
2 67993  42.9966 313.7396 0000683 235.4163 124.6633 15.50615236  4299
STARLINK-36993          
1 67994U 26039J   26085.91668981 -.01797069  00000+0 -48842-1 0  9991
2 67994  42.9997 311.7988 0001877 264.5521 189.2420 15.39999390  5640
STARLINK-36968          
1 67995U 26039K   26085.63510689  .00082771  00000+0  13994-2 0  9997
2 67995  42.9998 314.2351 0001977 287.1649  72.8995 15.50628035  4288
STARLINK-36979          
1 67996U 26039L   26085.91668981 -.01856702  00000+0 -52761-1 0  9998
2 67996  42.9999 311.7119 0001510 279.7675 209.1696 15.38768442  5640
STARLINK-36994          
1 67997U 26039M   26085.90928897  .00100379  00000+0  16922-2 0  9992
2 67997  42.9977 311.9665 0001357 273.6172  86.4532 15.50626014  4331
STARLINK-36988          
1 67998U 26039N   26085.96965355  .00124042  00000+0  21217-2 0  9995
2 67998  42.9961 311.5590 0014275 251.7478 108.1828 15.50007814  4349
STARLINK-36926          
1 67999U 26039P   26085.90761509  .00070387  00000+0  11936-2 0  9994
2 67999  43.0019 311.9536 0002719 269.5814  90.4735 15.50607565  4339
STARLINK-36931          
1 68000U 26039Q   26085.91668981 -.01897599  00000+0 -40576-1 0  9995
2 68000  43.0007 311.6353 0001396 271.5991 248.3289 15.47199223  5649
STARLINK-36903          
1 68001U 26039R   26085.91668981 -.01847200  00000+0 -60457-1 0  9990
2 68001  42.9997 312.1649 0001333 249.5113  54.5279 15.34415626  5642
STARLINK-36898          
1 68002U 26039S   26085.91668981 -.01777436  00000+0 -60810-1 0  9997
2 68002  42.9986 311.9921 0001574 246.6277 126.7901 15.32893195  5640
STARLINK-36862          
1 68003U 26039T   26085.91668981 -.02184464  00000+0 -78034-1 0  9999
2 68003  42.9993 312.1650 0001719 257.7001  44.3936 15.31682698  5646
STARLINK-36888          
1 68004U 26039U   26085.91668981 -.01745952  00000+0 -60655-1 0  9994
2 68004  42.9987 312.1878 0001163 247.7461  46.7678 15.32353098  5643
STARLINK-36910          
1 68005U 26039V   26085.91668981 -.01741752  00000+0 -60644-1 0  9997
2 68005  42.9993 311.9263 0001528 256.1428 144.0289 15.32271854  5647
STARLINK-36889          
1 68006U 26039W   26085.91668981 -.01934931  00000+0 -49698-1 0  9997
2 68006  42.9998 311.9849 0001538 258.5821 118.7489 15.41934843  5641
STARLINK-36592          
1 68007U 26039X   26085.91668981 -.01851815  00000+0 -57344-1 0  9994
2 68007  42.9993 311.8211 0001460 271.4211 171.3855 15.36137223  5643
STARLINK-36911          
1 68008U 26039Y   26085.91668981 -.01878837  00000+0 -51290-1 0  9992
2 68008  43.0000 311.8099 0001581 266.6343 181.4072 15.40016973  5641
STARLINK-36956          
1 68009U 26039Z   26085.91668981 -.01871665  00000+0 -47453-1 0  9991
2 68009  43.0000 311.8334 0001563 272.9802 166.0561 15.42206177  5645
STARLINK-36953          
1 68010U 26039AA  26085.91668981 -.01847325  00000+0 -59914-1 0  9994
2 68010  42.9997 311.5034 0001037 272.0596 298.5111 15.34701052  5646
STARLINK-36991          
1 68011U 26039AB  26085.68859545  .00076372  00000+0  12925-2 0  9992
2 68011  43.0002 313.7642 0002514 276.7280  83.3294 15.50630216  4290
STARLINK-36936          
1 68012U 26039AC  26085.95955069 -.00335367  00000+0 -65200-2 0  9999
2 68012  43.0006 311.4739 0002423 280.3452  79.7134 15.48032826  4346
STARLINK-36967          
1 68013U 26039AD  26085.68324981  .00067926  00000+0  11523-2 0  9993
2 68013  42.9991 313.7222 0000708 255.9495 104.1286 15.50612647  4292
STARLINK-36985          
1 68014U 26039AE  26085.91668981 -.01835746  00000+0 -57535-1 0  9999
2 68014  42.9999 311.4158 0001098 258.9896 347.1481 15.35738761  5640
STARLINK-36335          
1 68015U 26040A   26085.83288828  .00543787  00000+0  33683-2 0  9998
2 68015  97.2853  35.1184 0003695 136.0282 224.1278 15.75541300  4059
STARLINK-36923          
1 68016U 26040B   26085.83183259  .00247745  00000+0  16042-2 0  9996
2 68016  97.2853  35.1197 0003257 100.8085 259.3547 15.75329596  4058
STARLINK-36568          
1 68017U 26040C   26085.38644515  .00255507  00000+0  16646-2 0  9999
2 68017  97.2883  34.6539 0003018  78.2413 281.9191 15.75167444  3983
STARLINK-36930          
1 68018U 26040D   26085.83253637  .00170071  00000+0  11149-2 0  9996
2 68018  97.2862  35.1177 0001762 104.9379 255.2082 15.75264206  4053
STARLINK-36921          
1 68019U 26040E   26085.38397233  .00234662  00000+0  15319-2 0  9998
2 68019  97.2861  34.6612 0002483  89.6448 270.5101 15.75179585  3986
